start=new Date('2023-02-26T00:00:00.000Z').valueOf();
sats=[{"INCLINATION":"53.2148","REV_AT_EPOCH":"5957","MEAN_ANOMALY":"273.0357","PERIOD":"95.437","ELEMENT_SET_NO":"999","NORAD_CAT_ID":"51462","SEMIMAJOR_AXIS":"6917.852","MEAN_MOTION":"15.08849359","MEAN_MOTION_DOT":"0.00006029","MEAN_ELEMENT_THEORY":"SGP4","DECAY_DATE":null,"TIME_SYSTEM":"UTC","APOAPSIS":"540.462","MEAN_MOTION_DDOT":"0.0000000000000","SITE":"AFETR","ARG_OF_PERICENTER":"87.0758","OBJECT_NAME":"STARLINK-3166","BSTAR":"0.00039643000000","RA_OF_ASC_NODE":"212.4755","OBJECT_TYPE":"PAYLOAD","ECCENTRICITY":"0.00010770","EPHEMERIS_TYPE":"0","CLASSIFICATION_TYPE":"U","FILE":"3839003","TLE_LINE1":"1 51462U 22010G   23056.83476798  .00006029  00000-0  39643-3 0  9996","COUNTRY_CODE":"US","EPOCH":"2023-02-25T20:02:03.953472","TLE_LINE2":"2 51462  53.2148 212.4755 0001077  87.0758 273.0357 15.08849359 59574","REF_FRAME":"TEME","PERIAPSIS":"538.972","OBJECT_ID":"2022-010G","CENTER_NAME":"EARTH","LAUNCH_DATE":"2022-02-03","GP_ID":"226914787","RCS_SIZE":"LARGE"},{"MEAN_MOTION_DOT":"0.00000694","MEAN_MOTION":"15.08838893","NORAD_CAT_ID":"51463","SEMIMAJOR_AXIS":"6917.884","ELEMENT_SET_NO":"999","DECAY_DATE":null,"TIME_SYSTEM":"UTC","MEAN_ELEMENT_THEORY":"SGP4","REV_AT_EPOCH":"5926","INCLINATION":"53.2151","PERIOD":"95.438","MEAN_ANOMALY":"271.6113","OBJECT_NAME":"STARLINK-3419","ARG_OF_PERICENTER":"88.4994","MEAN_MOTION_DDOT":"0.0000000000000","SITE":"AFETR","ECCENTRICITY":"0.00010020","EPHEMERIS_TYPE":"0","RA_OF_ASC_NODE":"212.5908","OBJECT_TYPE":"PAYLOAD","BSTAR":"0.00006169000000","APOAPSIS":"540.442","TLE_LINE1":"1 51463U 22010H   23056.80901093  .00000694  00000-0  61690-4 0  9995","EPOCH":"2023-02-25T19:24:58.544352","COUNTRY_CODE":"US","CLASSIFICATION_TYPE":"U","FILE":"3839003","CENTER_NAME":"EARTH","OBJECT_ID":"2022-010H","RCS_SIZE":"LARGE","GP_ID":"226914534","LAUNCH_DATE":"2022-02-03","TLE_LINE2":"2 51463  53.2151 212.5908 0001002  88.4994 271.6113 15.08838893 59266","PERIAPSIS":"539.056","REF_FRAME":"TEME"},{"REF_FRAME":"TEME","PERIAPSIS":"538.833","TLE_LINE2":"2 51464  53.2155 212.2070 0001297  89.8550 270.2591 15.08844820 60081","RCS_SIZE":"LARGE","LAUNCH_DATE":"2022-02-03","GP_ID":"226913288","CENTER_NAME":"EARTH","OBJECT_ID":"2022-010J","FILE":"3839003","CLASSIFICATION_TYPE":"U","COUNTRY_CODE":"US","EPOCH":"2023-02-25T21:26:51.063648","TLE_LINE1":"1 51464U 22010J   23056.89364657  .00001642  00000-0  12119-3 0  9999","APOAPSIS":"540.628","ECCENTRICITY":"0.00012970","EPHEMERIS_TYPE":"0","BSTAR":"0.00012119000000","RA_OF_ASC_NODE":"212.2070","OBJECT_TYPE":"PAYLOAD","OBJECT_NAME":"STARLINK-3189","MEAN_MOTION_DDOT":"0.0000000000000","SITE":"AFETR","ARG_OF_PERICENTER":"89.8550","PERIOD":"95.437","MEAN_ANOMALY":"270.2591","REV_AT_EPOCH":"6008","INCLINATION":"53.2155","TIME_SYSTEM":"UTC","DECAY_DATE":null,"MEAN_ELEMENT_THEORY":"SGP4","MEAN_MOTION":"15.08844820","MEAN_MOTION_DOT":"0.00001642","ELEMENT_SET_NO":"999","SEMIMAJOR_AXIS":"6917.866","NORAD_CAT_ID":"51464"},{"CENTER_NAME":"EARTH","OBJECT_ID":"2022-010K","RCS_SIZE":"LARGE","LAUNCH_DATE":"2022-02-03","GP_ID":"226913538","TLE_LINE2":"2 51465  53.2147 212.8225 0001182  93.0051 267.1077 15.08839665 60060","REF_FRAME":"TEME","PERIAPSIS":"538.929","TLE_LINE1":"1 51465U 22010K   23056.75748953  .00000244  00000-0  33405-4 0  9999","COUNTRY_CODE":"US","EPOCH":"2023-02-25T18:10:47.095392","CLASSIFICATION_TYPE":"U","FILE":"3839003","OBJECT_NAME":"STARLINK-3401","SITE":"AFETR","MEAN_MOTION_DDOT":"0.0000000000000","ARG_OF_PERICENTER":"93.0051","EPHEMERIS_TYPE":"0","ECCENTRICITY":"0.00011820","BSTAR":"0.00003340500000","RA_OF_ASC_NODE":"212.8225","OBJECT_TYPE":"PAYLOAD","APOAPSIS":"540.564","MEAN_MOTION":"15.08839665","MEAN_MOTION_DOT":"0.00000244","ELEMENT_SET_NO":"999","NORAD_CAT_ID":"51465","SEMIMAJOR_AXIS":"6917.881","DECAY_DATE":null,"TIME_SYSTEM":"UTC","MEAN_ELEMENT_THEORY":"SGP4","REV_AT_EPOCH":"6006","INCLINATION":"53.2147","PERIOD":"95.438","MEAN_ANOMALY":"267.1077"},{"CENTER_NAME":"EARTH","OBJECT_ID":"2022-010M","RCS_SIZE":"LARGE","LAUNCH_DATE":"2022-02-03","GP_ID":"226914287","TLE_LINE2":"2 51467  53.2146 212.9054 0001183  88.2239 271.8889 15.08837081 59259","REF_FRAME":"TEME","PERIAPSIS":"538.936","TLE_LINE1":"1 51467U 22010M   23056.73908893 -.00000362  00000-0 -46896-5 0  9992","COUNTRY_CODE":"US","EPOCH":"2023-02-25T17:44:17.283552","CLASSIFICATION_TYPE":"U","FILE":"3839003","OBJECT_NAME":"STARLINK-3178","MEAN_MOTION_DDOT":"0.0000000000000","SITE":"AFETR","ARG_OF_PERICENTER":"88.2239","ECCENTRICITY":"0.00011830","EPHEMERIS_TYPE":"0","BSTAR":"-0.00000468960000","RA_OF_ASC_NODE":"212.9054","OBJECT_TYPE":"PAYLOAD","APOAPSIS":"540.573","MEAN_MOTION":"15.08837081","MEAN_MOTION_DOT":"-0.00000362","ELEMENT_SET_NO":"999","NORAD_CAT_ID":"51467","SEMIMAJOR_AXIS":"6917.889","DECAY_DATE":null,"TIME_SYSTEM":"UTC","MEAN_ELEMENT_THEORY":"SGP4","REV_AT_EPOCH":"5925","INCLINATION":"53.2146","PERIOD":"95.438","MEAN_ANOMALY":"271.8889"},{"NORAD_CAT_ID":"51468","SEMIMAJOR_AXIS":"6917.856","ELEMENT_SET_NO":"999","MEAN_MOTION_DOT":"0.00008825","MEAN_MOTION":"15.08847841","MEAN_ELEMENT_THEORY":"SGP4","TIME_SYSTEM":"UTC","DECAY_DATE":null,"INCLINATION":"53.2146","REV_AT_EPOCH":"5927","MEAN_ANOMALY":"275.3690","PERIOD":"95.437","ARG_OF_PERICENTER":"84.7424","MEAN_MOTION_DDOT":"0.0000000000000","SITE":"AFETR","OBJECT_NAME":"STARLINK-3174","OBJECT_TYPE":"PAYLOAD","RA_OF_ASC_NODE":"212.2600","BSTAR":"0.00057174000000","ECCENTRICITY":"0.00010650","EPHEMERIS_TYPE":"0","APOAPSIS":"540.458","TLE_LINE1":"1 51468U 22010N   23056.88260803  .00008825  00000-0  57174-3 0  9990","EPOCH":"2023-02-25T21:10:57.333792","COUNTRY_CODE":"US","CLASSIFICATION_TYPE":"U","FILE":"3839003","OBJECT_ID":"2022-010N","CENTER_NAME":"EARTH","GP_ID":"226915034","LAUNCH_DATE":"2022-02-03","RCS_SIZE":"LARGE","TLE_LINE2":"2 51468  53.2146 212.2600 0001065  84.7424 275.3690 15.08847841 59272","PERIAPSIS":"538.985","REF_FRAME":"TEME"},{"APOAPSIS":"540.621","EPHEMERIS_TYPE":"0","ECCENTRICITY":"0.00012390","RA_OF_ASC_NODE":"213.0874","OBJECT_TYPE":"PAYLOAD","BSTAR":"0.00003172300000","OBJECT_NAME":"STARLINK-3182","ARG_OF_PERICENTER":"87.6735","MEAN_MOTION_DDOT":"0.0000000000000","SITE":"AFETR","PERIOD":"95.438","MEAN_ANOMALY":"272.4399","REV_AT_EPOCH":"5955","INCLINATION":"53.2144","TIME_SYSTEM":"UTC","DECAY_DATE":null,"MEAN_ELEMENT_THEORY":"SGP4","MEAN_MOTION_DOT":"0.00000217","MEAN_MOTION":"15.08834036","SEMIMAJOR_AXIS":"6917.899","NORAD_CAT_ID":"51469","ELEMENT_SET_NO":"999","PERIAPSIS":"538.906","REF_FRAME":"TEME","TLE_LINE2":"2 51469  53.2144 213.0874 0001239  87.6735 272.4399 15.08834036 59550","RCS_SIZE":"LARGE","GP_ID":"226913789","LAUNCH_DATE":"2022-02-03","CENTER_NAME":"EARTH","OBJECT_ID":"2022-010P","CLASSIFICATION_TYPE":"U","FILE":"3839003","EPOCH":"2023-02-25T16:46:00.159744","COUNTRY_CODE":"US","TLE_LINE1":"1 51469U 22010P   23056.69861296  .00000217  00000-0  31723-4 0  9993"},{"TLE_LINE2":"2 51471  53.2146 205.1589 0002406 337.0326  23.0561 15.17016584 59668","PERIAPSIS":"513.207","REF_FRAME":"TEME","OBJECT_ID":"2022-010R","CENTER_NAME":"EARTH","GP_ID":"226914039","LAUNCH_DATE":"2022-02-03","RCS_SIZE":"LARGE","CLASSIFICATION_TYPE":"U","FILE":"3839003","TLE_LINE1":"1 51471U 22010R   23056.68696785  .00045455  00000-0  22731-2 0  9994","EPOCH":"2023-02-25T16:29:14.022240","COUNTRY_CODE":"US","APOAPSIS":"516.524","ARG_OF_PERICENTER":"337.0326","MEAN_MOTION_DDOT":"0.0000000000000","SITE":"AFETR","OBJECT_NAME":"STARLINK-3165","RA_OF_ASC_NODE":"205.1589","OBJECT_TYPE":"PAYLOAD","BSTAR":"0.00227310000000","ECCENTRICITY":"0.00024060","EPHEMERIS_TYPE":"0","INCLINATION":"53.2146","REV_AT_EPOCH":"5966","MEAN_ANOMALY":"23.0561","PERIOD":"94.923","NORAD_CAT_ID":"51471","SEMIMAJOR_AXIS":"6893.000","ELEMENT_SET_NO":"999","MEAN_MOTION_DOT":"0.00045455","MEAN_MOTION":"15.17016584","MEAN_ELEMENT_THEORY":"SGP4","TIME_SYSTEM":"UTC","DECAY_DATE":null},{"CENTER_NAME":"EARTH","OBJECT_ID":"2022-010S","RCS_SIZE":"LARGE","GP_ID":"226914788","LAUNCH_DATE":"2022-02-03","TLE_LINE2":"2 51472  53.2153 212.2775 0000991  84.2938 275.8167 15.08844988 59587","PERIAPSIS":"539.045","REF_FRAME":"TEME","TLE_LINE1":"1 51472U 22010S   23056.87892662  .00002616  00000-0  18235-3 0  9995","EPOCH":"2023-02-25T21:05:39.259968","COUNTRY_CODE":"US","CLASSIFICATION_TYPE":"U","FILE":"3839003","OBJECT_NAME":"STARLINK-3415","ARG_OF_PERICENTER":"84.2938","MEAN_MOTION_DDOT":"0.0000000000000","SITE":"AFETR","EPHEMERIS_TYPE":"0","ECCENTRICITY":"0.00009910","OBJECT_TYPE":"PAYLOAD","RA_OF_ASC_NODE":"212.2775","BSTAR":"0.00018235000000","APOAPSIS":"540.416","MEAN_MOTION_DOT":"0.00002616","MEAN_MOTION":"15.08844988","SEMIMAJOR_AXIS":"6917.865","NORAD_CAT_ID":"51472","ELEMENT_SET_NO":"999","DECAY_DATE":null,"TIME_SYSTEM":"UTC","MEAN_ELEMENT_THEORY":"SGP4","REV_AT_EPOCH":"5958","INCLINATION":"53.2153","PERIOD":"95.437","MEAN_ANOMALY":"275.8167"},{"COUNTRY_CODE":"US","EPOCH":"2023-02-25T21:09:37.754208","TLE_LINE1":"1 51714U 22016A   23056.88168697  .00002880  00000-0  19893-3 0  9999","CLASSIFICATION_TYPE":"U","FILE":"3839003","LAUNCH_DATE":"2022-02-21","GP_ID":"226914543","RCS_SIZE":"LARGE","OBJECT_ID":"2022-016A","CENTER_NAME":"EARTH","REF_FRAME":"TEME","PERIAPSIS":"539.002","TLE_LINE2":"2 51714  53.2141 262.2649 0001040  84.2519 275.8591 15.08847933 56186","MEAN_ELEMENT_THEORY":"SGP4","DECAY_DATE":null,"TIME_SYSTEM":"UTC","ELEMENT_SET_NO":"999","NORAD_CAT_ID":"51714","SEMIMAJOR_AXIS":"6917.856","MEAN_MOTION":"15.08847933","MEAN_MOTION_DOT":"0.00002880","MEAN_ANOMALY":"275.8591","PERIOD":"95.437","INCLINATION":"53.2141","REV_AT_EPOCH":"5618","BSTAR":"0.00019893000000","RA_OF_ASC_NODE":"262.2649","OBJECT_TYPE":"PAYLOAD","ECCENTRICITY":"0.00010400","EPHEMERIS_TYPE":"0","MEAN_MOTION_DDOT":"0.0000000000000","SITE":"AFETR","ARG_OF_PERICENTER":"84.2519","OBJECT_NAME":"STARLINK-3528","APOAPSIS":"540.441"}];
